CZ-3B R/B               
1 55913U 23036B   23097.76469795  .00048482 -58845-6  84495-3 0  9997
2 55913  28.4133 291.7850 7214680 192.5412 128.4374  2.41523957   524
STARLINK-5856           
1 55914U 23037A   23097.58334491 -.00075185  00000+0 -62775-3 0  9994
2 55914  69.9991 122.5621 0003380 271.1702 215.7463 15.69976304  1304
STARLINK-5859           
1 55915U 23037B   23097.58334491 -.00065662  00000+0 -54756-3 0  9994
2 55915  69.9986 122.5617 0003291 275.1395 214.1597 15.69969342  1302
STARLINK-5796           
1 55916U 23037C   23097.58334491 -.00078500  00000+0 -65569-3 0  9994
2 55916  69.9990 122.5619 0003403 270.4172 217.0922 15.69978803  1302
STARLINK-5855           
1 55917U 23037D   23097.58334491 -.00056396  00000+0 -46966-3 0  9994
2 55917  69.9991 122.5604 0003539 274.0376 214.6712 15.69960749  1304
STARLINK-5867           
1 55918U 23037E   23097.58334491 -.00050249  00000+0 -41793-3 0  9999
2 55918  69.9992 122.5608 0003485 273.3688 214.7340 15.69963489  1300
STARLINK-5871           
1 55919U 23037F   23097.58334491 -.00048961  00000+0 -40721-3 0  9998
2 55919  69.9993 122.5578 0003689 269.6185 220.2825 15.69956314  1303
STARLINK-5862           
1 55920U 23037G   23097.58334491 -.00056245  00000+0 -46845-3 0  9997
2 55920  69.9992 122.5517 0003388 270.1667 225.0970 15.69958650  1304
STARLINK-5861           
1 55921U 23037H   23097.58334491 -.00083584  00000+0 -69856-3 0  9991
2 55921  69.9989 122.5572 0003353 273.6236 218.0571 15.69983496  1309
STARLINK-5863           
1 55922U 23037J   23097.58334491 -.00047764  00000+0 -39710-3 0  9998
2 55922  69.9993 122.5564 0003381 274.9938 216.0879 15.69961326  1307
STARLINK-5854           
1 55923U 23037K   23097.58334491 -.00067383  00000+0 -56199-3 0  9998
2 55923  69.9990 122.5584 0003550 271.8318 218.6567 15.69971412  1302
STARLINK-5849           
1 55924U 23037L   23097.58334491 -.00075291  00000+0 -62863-3 0  9991
2 55924  69.9993 122.5483 0003272 272.0330 225.5982 15.69977222  1305
STARLINK-5922           
1 55925U 23037M   23097.58334491 -.00062148  00000+0 -51795-3 0  9991
2 55925  69.9990 122.5558 0003410 277.3610 214.9135 15.69968310  1309
STARLINK-5921           
1 55926U 23037N   23097.58334491 -.00075322  00000+0 -62897-3 0  9995
2 55926  69.9992 122.5496 0003304 275.0763 221.9653 15.69974033  1301
STARLINK-5919           
1 55927U 23037P   23097.58334491 -.00058882  00000+0 -49051-3 0  9995
2 55927  69.9991 122.5547 0003335 274.0071 218.8644 15.69965983  1302
STARLINK-5930           
1 55928U 23037Q   23097.58334491 -.00073518  00000+0 -61367-3 0  9993
2 55928  69.9995 122.5518 0003494 274.0823 219.9774 15.69975661  1306
STARLINK-5898           
1 55929U 23037R   23097.58334491 -.00063752  00000+0 -53146-3 0  9999
2 55929  69.9992 122.5539 0003331 273.7147 219.7517 15.69969050  1300
STARLINK-5896           
1 55930U 23037S   23097.91667824  .00093212  00000+0  76969-3 0  9997
2 55930  69.9999 121.6093 0003583 267.0313 314.5622 15.69882173  3846
STARLINK-5897           
1 55931U 23037T   23097.58334491 -.00029777  00000+0 -24646-3 0  9994
2 55931  69.9992 122.5521 0003365 270.2319 224.4211 15.69951880  1300
STARLINK-5848           
1 55932U 23037U   23097.58334491 -.00046090  00000+0 -38313-3 0  9998
2 55932  69.9997 122.5234 0003483 270.3780 246.9135 15.69955568  1302
STARLINK-5852           
1 55933U 23037V   23097.58334491 -.00069552  00000+0 -58031-3 0  9996
2 55933  69.9995 122.5498 0003303 275.2019 220.6466 15.69971751  1301
STARLINK-5927           
1 55934U 23037W   23097.58334491 -.00040502  00000+0 -33629-3 0  9997
2 55934  69.9993 122.5426 0003438 265.9952 235.8136 15.69952030  1303
STARLINK-5920           
1 55935U 23037X   23097.58334491 -.00070914  00000+0 -59174-3 0  9991
2 55935  69.9994 122.5463 0003367 274.2067 224.6169 15.69974053  1308
STARLINK-5882           
1 55936U 23037Y   23097.58334491 -.00053903  00000+0 -44873-3 0  9991
2 55936  69.9998 122.5233 0003459 268.7405 247.9563 15.69959241  1302
STARLINK-5913           
1 55937U 23037Z   23097.58334491  .00010731  00000+0  90940-4 0  9999
2 55937  69.9994 122.5455 0003548 271.0524 228.3914 15.69912455  1302
STARLINK-5909           
1 55938U 23037AA  23097.58334491 -.00048858  00000+0 -40652-3 0  9997
2 55938  69.9993 122.5445 0003109 273.8198 226.2158 15.69949431  1302
STARLINK-5918           
1 55939U 23037AB  23097.58334491 -.00055597  00000+0 -46299-3 0  9999
2 55939  69.9994 122.5427 0003404 265.9258 235.2911 15.69958753  1305
STARLINK-5864           
1 55940U 23037AC  23097.58334491 -.00080237  00000+0 -67035-3 0  9991
2 55940  69.9996 122.5422 0003450 274.1137 226.4959 15.69979604  1305
STARLINK-5914           
1 55941U 23037AD  23097.58334491 -.00061074  00000+0 -50897-3 0  9998
2 55941  69.9996 122.5489 0003322 270.3065 226.1396 15.69965833  1306
STARLINK-5917           
1 55942U 23037AE  23097.58334491 -.00055647  00000+0 -46345-3 0  9991
2 55942  69.9996 122.5378 0003383 265.8269 238.9655 15.69956935  1308
STARLINK-5932           
1 55943U 23037AF  23097.58334491 -.00073347  00000+0 -61231-3 0  9990
2 55943  69.9996 122.5395 0003518 276.1227 227.4718 15.69972267  1306
STARLINK-5926           
1 55944U 23037AG  23097.58334491 -.00080627  00000+0 -67374-3 0  9994
2 55944  69.9995 122.5392 0003364 270.1206 234.0731 15.69976726  1306
STARLINK-5925           
1 55945U 23037AH  23097.58334491 -.00057959  00000+0 -48282-3 0  9994
2 55945  69.9995 122.5419 0003363 269.5910 232.8144 15.69961645  1308
STARLINK-5857           
1 55946U 23037AJ  23097.58334491 -.00058791  00000+0 -48981-3 0  9996
2 55946  69.9994 122.5411 0003338 272.0741 230.9258 15.69962683  1301
STARLINK-5851           
1 55947U 23037AK  23097.58334491 -.00018769  00000+0 -15461-3 0  9995
2 55947  69.9993 122.5388 0002989 274.2363 231.1567 15.69934990  1305
STARLINK-5900           
1 55948U 23037AL  23097.58334491 -.00040847  00000+0 -33917-3 0  9994
2 55948  69.9997 122.5328 0003309 271.7315 236.6251 15.69954114  1300
STARLINK-5899           
1 55949U 23037AM  23097.58334491 -.00068580  00000+0 -57228-3 0  9990
2 55949  69.9997 122.5353 0003418 269.2467 237.9264 15.69964075  1305
STARLINK-5911           
1 55950U 23037AN  23097.91667824  .00129445  00000+0  10648-2 0  9998
2 55950  69.9999 121.5959 0003320 267.3763 325.5464 15.69855589  3846
STARLINK-5908           
1 55951U 23037AP  23097.91667824  .00128672  00000+0  10588-2 0  9993
2 55951  70.0002 121.5985 0003425 262.5973 326.7652 15.69849517  3846
STARLINK-5893           
1 55952U 23037AQ  23097.58334491 -.00029426  00000+0 -24364-3 0  9995
2 55952  69.9993 122.5333 0003379 267.0549 240.7170 15.69940516  1308
STARLINK-5889           
1 55953U 23037AR  23097.58334491 -.00049224  00000+0 -40941-3 0  9993
2 55953  69.9996 122.5368 0003833 268.2415 238.3322 15.69956063  1306
STARLINK-5892           
1 55954U 23037AS  23097.58334491 -.00048360  00000+0 -40223-3 0  9997
2 55954  69.9998 122.5271 0003408 267.3517 246.3715 15.69953863  1303
STARLINK-5878           
1 55955U 23037AT  23097.58334491 -.00073955  00000+0 -61754-3 0  9998
2 55955  69.9996 122.5313 0003413 269.2055 241.5390 15.69968841  1301
STARLINK-5883           
1 55956U 23037AU  23097.58334491 -.00034591  00000+0 -28682-3 0  9995
2 55956  69.9997 122.5252 0003275 266.1980 248.7147 15.69947191  1308
STARLINK-5884           
1 55957U 23037AV  23097.58334491  .00023414  00000+0  19623-3 0  9991
2 55957  69.9998 122.5309 0003304 270.2674 239.9313 15.69889575  1300
STARLINK-5928           
1 55958U 23037AW  23097.58334491  .00004504  00000+0  39195-4 0  9998
2 55958  69.9997 122.5295 0003574 273.6853 237.6469 15.69930158  1300
STARLINK-5929           
1 55959U 23037AX  23097.58334491 -.00052940  00000+0 -44065-3 0  9999
2 55959  69.9998 122.5299 0003607 269.8776 242.0569 15.69957322  1307
STARLINK-5938           
1 55960U 23037AY  23097.58334491 -.00068330  00000+0 -57016-3 0  9991
2 55960  69.9998 122.5240 0003270 268.0504 248.0537 15.69965487  1303
STARLINK-5933           
1 55961U 23037AZ  23097.58334491 -.00066173  00000+0 -55191-3 0  9997
2 55961  69.9998 122.5261 0003316 274.2588 240.0535 15.69967415  1302
STARLINK-5906           
1 55962U 23037BA  23097.58334491 -.00043261  00000+0 -35941-3 0  9992
2 55962  69.9998 122.5274 0003369 267.0063 246.1157 15.69954177  1301
STARLINK-5924           
1 55963U 23037BB  23097.58334491 -.00007886  00000+0 -63928-4 0  9993
2 55963  69.9998 122.5280 0003350 271.8982 240.6967 15.69903279  1307
STARLINK-5895           
1 55964U 23037BC  23097.58334491 -.00066532  00000+0 -55501-3 0  9994
2 55964  69.9989 122.5313 0003460 268.2398 240.7209 15.69963527  1300
STARLINK-5894           
1 55965U 23037BD  23097.58334491 -.00067006  00000+0 -55892-3 0  9995
2 55965  69.9997 122.5253 0003341 272.0818 243.4214 15.69968064  1308
SES-18                  
1 55970U 23038A   23097.55599193  .00000121  00000+0  00000+0 0  9991
2 55970   0.0803 266.9417 0000592  20.2608 327.3086  1.00272281   415
SES-19                  
1 55971U 23038B   23097.72248510  .00000125  00000+0  00000+0 0  9999
2 55971   0.0825 275.2874 0000376 336.2939  61.4423  1.00276440   385
FALCON 9 R/B            
1 55972U 23038C   23094.95803534  .00005696  00000+0  16271-2 0  9993
2 55972  26.8934 346.8538 5921306 198.6961 124.0157  4.14179372   845
2023-039A               
1 55973U 23039A   23097.79001473  .00009832  00000+0  47373-3 0  9996
2 55973  97.4184 248.1934 0011862 193.2027 303.8866 15.18872154  2498
2023-039B               
1 55974U 23039B   23097.85786862  .00009534  00000+0  45718-3 0  9996
2 55974  97.4105 248.2465 0011324 196.4605 322.1471 15.19053693  2498
2023-039C               
1 55975U 23039C   23097.85339962  .00009839  00000+0  47026-3 0  9994
2 55975  97.4150 248.2548 0010471 197.7874 302.9764 15.19165752  2485
